IRIDIUM 39              
1 25042U 97069D   25186.56426985  .00000429  00000+0  10723-3 0  9991
2 25042  86.3921 203.2555 0015718 242.2041 117.7571 14.49234480451629
IRIDIUM 42              
1 25077U 97077A   25186.63620723  .00000244  00000+0  76664-4 0  9994
2 25077  86.3954 231.5871 0002956  83.4328 276.7205 14.36362510443848
IRIDIUM 44              
1 25078U 97077B   25186.61034489  .00000277  00000+0  81209-4 0  9998
2 25078  86.3961 213.4781 0002049  40.3636 319.7715 14.40252051446359
IRIDIUM 45              
1 25104U 97082A   25186.65501210  .00010539  00000+0  37524-3 0  9991
2 25104  86.3576  38.9200 0113146 262.2473  96.5913 15.22817598454850
IRIDIUM 24              
1 25105U 97082B   25186.76791524  .00000343  00000+0  98123-4 0  9998
2 25105  86.3890  72.4193 0012380  26.4508 333.7321 14.42112428445895
IRIDIUM 51              
1 25262U 98018A   25186.67795533  .00029639  00000+0  63683-3 0  9997
2 25262  86.3820  46.6694 0084983 177.3261 182.8467 15.40659022449872
IRIDIUM 57              
1 25273U 98019B   25186.91775673  .00000277  00000+0  88612-4 0  9997
2 25273  86.3984 137.4170 0002324  84.4476 275.6986 14.35902992427477
